[
    {
        "CCSDS_OMM_VERS": "3.0",
        "COMMENT": "GENERATED VIA SPACE-TRACK.ORG API",
        "CREATION_DATE": "2025-03-02T09:28:08",
        "ORIGINATOR": "18 SPCS",
        "OBJECT_NAME": "BD-21",
        "OBJECT_ID": "2016-006A",
        "CENTER_NAME": "EARTH",
        "REF_FRAME": "TEME",
        "TIME_SYSTEM": "UTC",
        "MEAN_ELEMENT_THEORY": "SGP4",
        "EPOCH": "2025-03-01T12:17:13.927200",
        "MEAN_MOTION": "1.86231200",
        "ECCENTRICITY": "0.00052090",
        "INCLINATION": "56.2926",
        "RA_OF_ASC_NODE": "79.2499",
        "ARG_OF_PERICENTER": "283.0267",
        "MEAN_ANOMALY": "76.9724",
        "EPHEMERIS_TYPE": "0",
        "CLASSIFICATION_TYPE": "U",
        "NORAD_CAT_ID": "41315",
        "ELEMENT_SET_NO": "999",
        "REV_AT_EPOCH": "6179",
        "BSTAR": "0.00000000000000",
        "MEAN_MOTION_DOT": "0.00000019",
        "MEAN_MOTION_DDOT": "0.0000000000000",
        "SEMIMAJOR_AXIS": "27906.169",
        "PERIOD": "773.232",
        "APOAPSIS": "21542.570",
        "PERIAPSIS": "21513.497",
        "OBJECT_TYPE": "PAYLOAD",
        "RCS_SIZE": "LARGE",
        "COUNTRY_CODE": "PRC",
        "LAUNCH_DATE": "2016-02-01",
        "SITE": "XSC",
        "DECAY_DATE": null,
        "FILE": "4656805",
        "GP_ID": "282047405",
        "TLE_LINE0": "0 BD-21",
        "TLE_LINE1": "1 41315U 16006A   25060.51196675  .00000019  00000-0  00000-0 0  9990",
        "TLE_LINE2": "2 41315  56.2926  79.2499 0005209 283.0267  76.9724  1.86231200 61791"
    }
]